{
  "type": "FeatureCollection",
  "features": [
    {
      "type": "Feature",
      "properties": {
        "norad_id": 31433,
        "name": "FENGYUN 1C DEB",
        "group": "fengyun-1c-debris",
        "lat": -33.13530324470164,
        "lon": -113.0370703508545,
        "alt_km": 811.8700623778759,
        "timestamp": "2025-12-03T13:52:09.844214+00:00",
        "meta_object_name": "FENGYUN 1C DEB",
        "meta_object_id": "1999-025BTV",
        "meta_epoch": "2025-12-02T16:23:31.467840",
        "meta_mean_motion": 14.25236284,
        "meta_eccentricity": 0.01000588,
        "meta_inclination": 98.4106,
        "meta_ra_of_asc_node": 240.5627,
        "meta_arg_of_pericenter": 58.2485,
        "meta_mean_anomaly": 0.52,
        "meta_ephemeris_type": 0,
        "meta_classification_type": "U",
        "meta_norad_cat_id": 31433,
        "meta_element_set_no": 999,
        "meta_rev_at_epoch": 95409,
        "meta_bstar": 0.0029974543,
        "meta_mean_motion_dot": 7.392e-05,
        "meta_mean_motion_ddot": 0,
        "tle_line1": "1 31433U 99025BTV 25336.68300310  .00007392  00000+0  29975-2 0  9993",
        "tle_line2": "2 31433  98.4106 240.5627 0100058  58.2485   0.5200 14.25236284954097"
      },
      "geometry": {
        "type": "Point",
        "coordinates": [
          -113.0370703508545,
          -33.13530324470164
        ]
      }
    },
    {
      "type": "Feature",
      "properties": {
        "norad_id": 31435,
        "name": "FENGYUN 1C DEB",
        "group": "fengyun-1c-debris",
        "lat": -18.98023651530239,
        "lon": -34.45138584358672,
        "alt_km": 615.3036860324992,
        "timestamp": "2025-12-03T13:52:09.844227+00:00",
        "meta_object_name": "FENGYUN 1C DEB",
        "meta_object_id": "1999-025BTX",
        "meta_epoch": "2025-12-03T06:20:31.766784",
        "meta_mean_motion": 14.53394534,
        "meta_eccentricity": 0.0148677,
        "meta_inclination": 99.0371,
        "meta_ra_of_asc_node": 148.3484,
        "meta_arg_of_pericenter": 208.6168,
        "meta_mean_anomaly": 150.6808,
        "meta_ephemeris_type": 0,
        "meta_classification_type": "U",
        "meta_norad_cat_id": 31435,
        "meta_element_set_no": 999,
        "meta_rev_at_epoch": 98235,
        "meta_bstar": 0.00043084101,
        "meta_mean_motion_dot": 2.014e-05,
        "meta_mean_motion_ddot": 0,
        "tle_line1": "1 31435U 99025BTX 25337.26425656  .00002014  00000+0  43084-3 0  9995",
        "tle_line2": "2 31435  99.0371 148.3484 0148677 208.6168 150.6808 14.53394534982359"
      },
      "geometry": {
        "type": "Point",
        "coordinates": [
          -34.45138584358672,
          -18.98023651530239
        ]
      }
    },
    {
      "type": "Feature",
      "properties": {
        "norad_id": 31436,
        "name": "FENGYUN 1C DEB",
        "group": "fengyun-1c-debris",
        "lat": -67.325930276263,
        "lon": -148.66887654478631,
        "alt_km": 567.805631590194,
        "timestamp": "2025-12-03T13:52:09.844237+00:00",
        "meta_object_name": "FENGYUN 1C DEB",
        "meta_object_id": "1999-025BTY",
        "meta_epoch": "2025-12-03T01:58:40.207584",
        "meta_mean_motion": 14.92097391,
        "meta_eccentricity": 0.00463297,
        "meta_inclination": 98.8813,
        "meta_ra_of_asc_node": 188.793,
        "meta_arg_of_pericenter": 273.9991,
        "meta_mean_anomaly": 236.851,
        "meta_ephemeris_type": 0,
        "meta_classification_type": "U",
        "meta_norad_cat_id": 31436,
        "meta_element_set_no": 999,
        "meta_rev_at_epoch": 96732,
        "meta_bstar": 0.0067542195,
        "meta_mean_motion_dot": 0.00070656,
        "meta_mean_motion_ddot": 0,
        "tle_line1": "1 31436U 99025BTY 25337.08240981  .00070656  00000+0  67542-2 0  9993",
        "tle_line2": "2 31436  98.8813 188.7930 0046329 273.9991 236.8510 14.92097391967323"
      },
      "geometry": {
        "type": "Point",
        "coordinates": [
          -148.66887654478631,
          -67.325930276263
        ]
      }
    },
    {
      "type": "Feature",
      "properties": {
        "norad_id": 31437,
        "name": "FENGYUN 1C DEB",
        "group": "fengyun-1c-debris",
        "lat": 32.610579994423006,
        "lon": 52.55800448084801,
        "alt_km": 754.1134401882591,
        "timestamp": "2025-12-03T13:52:09.844248+00:00",
        "meta_object_name": "FENGYUN 1C DEB",
        "meta_object_id": "1999-025BTZ",
        "meta_epoch": "2025-12-03T03:43:35.676192",
        "meta_mean_motion": 14.42268403,
        "meta_eccentricity": 0.00147172,
        "meta_inclination": 98.8658,
        "meta_ra_of_asc_node": 57.8503,
        "meta_arg_of_pericenter": 275.1536,
        "meta_mean_anomaly": 84.7972,
        "meta_ephemeris_type": 0,
        "meta_classification_type": "U",
        "meta_norad_cat_id": 31437,
        "meta_element_set_no": 999,
        "meta_rev_at_epoch": 96372,
        "meta_bstar": 0.0031577834,
        "meta_mean_motion_dot": 0.00010397,
        "meta_mean_motion_ddot": 0,
        "tle_line1": "1 31437U 99025BTZ 25337.15527403  .00010397  00000+0  31578-2 0  9995",
        "tle_line2": "2 31437  98.8658  57.8503 0014717 275.1536  84.7972 14.42268403963729"
      },
      "geometry": {
        "type": "Point",
        "coordinates": [
          52.55800448084801,
          32.610579994423006
        ]
      }
    },
    {
      "type": "Feature",
      "properties": {
        "norad_id": 31439,
        "name": "FENGYUN 1C DEB",
        "group": "fengyun-1c-debris",
        "lat": -73.37871632659039,
        "lon": 15.627132392006173,
        "alt_km": 927.6740683782073,
        "timestamp": "2025-12-03T13:52:09.844258+00:00",
        "meta_object_name": "FENGYUN 1C DEB",
        "meta_object_id": "1999-025BUB",
        "meta_epoch": "2025-12-01T07:15:31.336128",
        "meta_mean_motion": 13.95544292,
        "meta_eccentricity": 0.0137549,
        "meta_inclination": 98.917,
        "meta_ra_of_asc_node": 341.6948,
        "meta_arg_of_pericenter": 193.1955,
        "meta_mean_anomaly": 183.8365,
        "meta_ephemeris_type": 0,
        "meta_classification_type": "U",
        "meta_norad_cat_id": 31439,
        "meta_element_set_no": 999,
        "meta_rev_at_epoch": 63073,
        "meta_bstar": 0.00089354,
        "meta_mean_motion_dot": 1.272e-05,
        "meta_mean_motion_ddot": 0,
        "tle_line1": "1 31439U 99025BUB 25335.30244602  .00001272  00000+0  89354-3 0  9997",
        "tle_line2": "2 31439  98.9170 341.6948 0137549 193.1955 183.8365 13.95544292630730"
      },
      "geometry": {
        "type": "Point",
        "coordinates": [
          15.627132392006173,
          -73.37871632659039
        ]
      }
    },
    {
      "type": "Feature",
      "properties": {
        "norad_id": 31440,
        "name": "FENGYUN 1C DEB",
        "group": "fengyun-1c-debris",
        "lat": -48.590782222916715,
        "lon": 75.48827960178077,
        "alt_km": 763.6305342411442,
        "timestamp": "2025-12-03T13:52:09.844271+00:00",
        "meta_object_name": "FENGYUN 1C DEB",
        "meta_object_id": "1999-025BUC",
        "meta_epoch": "2025-12-02T04:39:51.729408",
        "meta_mean_motion": 14.36510307,
        "meta_eccentricity": 0.00367739,
        "meta_inclination": 98.7469,
        "meta_ra_of_asc_node": 64.0297,
        "meta_arg_of_pericenter": 14.8999,
        "meta_mean_anomaly": 345.3261,
        "meta_ephemeris_type": 0,
        "meta_classification_type": "U",
        "meta_norad_cat_id": 31440,
        "meta_element_set_no": 999,
        "meta_rev_at_epoch": 96174,
        "meta_bstar": 0.0021635441,
        "meta_mean_motion_dot": 6.36e-05,
        "meta_mean_motion_ddot": 0,
        "tle_line1": "1 31440U 99025BUC 25336.19434872  .00006360  00000+0  21635-2 0  9997",
        "tle_line2": "2 31440  98.7469  64.0297 0036773  14.8999 345.3261 14.36510307961742"
      },
      "geometry": {
        "type": "Point",
        "coordinates": [
          75.48827960178077,
          -48.590782222916715
        ]
      }
    },
    {
      "type": "Feature",
      "properties": {
        "norad_id": 31441,
        "name": "FENGYUN 1C DEB",
        "group": "fengyun-1c-debris",
        "lat": 44.33512635641955,
        "lon": 28.251309463998567,
        "alt_km": 693.4850858920245,
        "timestamp": "2025-12-03T13:52:09.844281+00:00",
        "meta_object_name": "FENGYUN 1C DEB",
        "meta_object_id": "1999-025BUD",
        "meta_epoch": "2025-12-03T01:51:36.412992",
        "meta_mean_motion": 14.73966305,
        "meta_eccentricity": 0.01063296,
        "meta_inclination": 99.3135,
        "meta_ra_of_asc_node": 198.4503,
        "meta_arg_of_pericenter": 4.9284,
        "meta_mean_anomaly": 355.2941,
        "meta_ephemeris_type": 0,
        "meta_classification_type": "U",
        "meta_norad_cat_id": 31441,
        "meta_element_set_no": 999,
        "meta_rev_at_epoch": 63948,
        "meta_bstar": 0.0068089716,
        "meta_mean_motion_dot": 0.00049217,
        "meta_mean_motion_ddot": 0,
        "tle_line1": "1 31441U 99025BUD 25337.07750478  .00049217  00000+0  68090-2 0  9993",
        "tle_line2": "2 31441  99.3135 198.4503 0106329   4.9284 355.2941 14.73966305639486"
      },
      "geometry": {
        "type": "Point",
        "coordinates": [
          28.251309463998567,
          44.33512635641955
        ]
      }
    }
  ]
}